{"n":37846,"c":2,"l1":"1 37846U 2011-060 26135.58630403 -0.00000063  00000-0  00000-0 0  9995","l2":"2 37846  57.0052 342.6453 0003746  38.7070 321.3595  1.70475590 90567","nm":"GSAT0101 (GALILEO-PFM)"},{"n":37847,"c":2,"l1":"1 37847U 2011-060 26136.38933500 -0.00000066  00000-0  00000-0 0  9992","l2":"2 37847  57.0053 342.6241 0004066   9.1833 169.3141  1.70475840 90586","nm":"GSAT0102 (GALILEO-FM2)"},{"n":38857,"c":2,"l1":"1 38857U 2012-055 26136.79987477  0.00000030  00000-0  00000-0 0  9996","l2":"2 38857  55.7880 102.4060 0005646 299.2123  60.6822  1.70473321 84473","nm":"GSAT0103 (GALILEO-FM3)"},{"n":40128,"c":2,"l1":"1 40128U 2014-050 26134.99980419 -0.00000050  00000-0  00000-0 0  9999","l2":"2 40128  48.9120 274.7959 1669527 178.0972 182.6426  1.85519851 77707","nm":"GSAT0201 (GALILEO 5)"},{"n":40129,"c":2,"l1":"1 40129U 2014-050 26137.41140161 -0.00000043  00000-0  00000-0 0  9994","l2":"2 40129  48.9270 273.7821 1671022 178.9191 181.5152  1.85520497 79913","nm":"GSAT0202 (GALILEO 6)"},{"n":40544,"c":2,"l1":"1 40544U 2015-017 26137.12395846 -0.00000070  00000-0  00000-0 0  9999","l2":"2 40544  56.7967 342.4423 0002504 297.2478  62.7600  1.70475875 68673","nm":"GSAT0203 (GALILEO 7)"},{"n":40545,"c":2,"l1":"1 40545U 2015-017 26136.79309638 -0.00000069  00000-0  00000-0 0  9994","l2":"2 40545  56.8031 342.4697 0001804 272.0935  87.9205  1.70475563 31710","nm":"GSAT0204 (GALILEO 8)"},{"n":40889,"c":2,"l1":"1 40889U 2015-045 26115.63255191 -0.00000038  00000-0  00000-0 0  9996","l2":"2 40889  54.9613 223.1764 0005160 266.9978  92.9342  1.67410754 66087","nm":"GSAT0205 (GALILEO 9)"},{"n":40890,"c":2,"l1":"1 40890U 2015-045 26137.36836288  0.00000022  00000-0  00000-0 0  9996","l2":"2 40890  54.9538 222.4556 0001598  17.7003 342.3704  1.70473910 66517","nm":"GSAT0206 (GALILEO 10)"},{"n":41174,"c":2,"l1":"1 41174U 2015-079 26134.01678125  0.00000051  00000-0  00000-0 0  9994","l2":"2 41174  55.8082 102.1982 0005677 332.8024  27.1359  1.70473925 64192","nm":"GSAT0209 (GALILEO 12)"},{"n":41175,"c":2,"l1":"1 41175U 2015-079 26137.16995924  0.00000027  00000-0  00000-0 0  9996","l2":"2 41175  55.8081 102.1089 0005046 334.5319  25.3924  1.70473778 64662","nm":"GSAT0208 (GALILEO 11)"},{"n":41549,"c":2,"l1":"1 41549U 2016-030 26137.29409486  0.00000022  00000-0  00000-0 0  9991","l2":"2 41549  55.1039 222.5447 0002500 349.5575  10.5019  1.70474149 62145","nm":"GSAT0211 (GALILEO 14)"},{"n":41550,"c":2,"l1":"1 41550U 2016-030 26136.37819808  0.00000022  00000-0  00000-0 0  9994","l2":"2 41550  55.1026 222.5678 0003120 229.9283 130.1038  1.70474053 62127","nm":"GSAT0210 (GALILEO 13)"},{"n":41859,"c":2,"l1":"1 41859U 2016-069 26137.24292213  0.00000025  00000-0  00000-0 0  9993","l2":"2 41859  55.4803 101.9417 0005788 322.0774  37.8308  1.70473741 58871","nm":"GSAT0207 (GALILEO 15)"},{"n":41860,"c":2,"l1":"1 41860U 2016-069 26134.16349088  0.00000049  00000-0  00000-0 0  9992","l2":"2 41860  55.4761 102.0219 0004753 345.7526  14.2010  1.70473991 59075","nm":"GSAT0212 (GALILEO 16)"},{"n":41861,"c":2,"l1":"1 41861U 2016-069 26136.87710314  0.00000028  00000-0  00000-0 0  9994","l2":"2 41861  55.4801 101.9549 0005646 306.4907  53.4077  1.70474360 58982","nm":"GSAT0213 (GALILEO 17)"},{"n":41862,"c":2,"l1":"1 41862U 2016-069 26136.43667882  0.00000031  00000-0  00000-0 0  9992","l2":"2 41862  55.4784 101.9597 0004726 312.6450  47.2675  1.70473957 59107","nm":"GSAT0214 (GALILEO 18)"},{"n":43055,"c":2,"l1":"1 43055U 2017-079 26136.34019632  0.00000022  00000-0  00000-0 0  9994","l2":"2 43055  55.0824 222.3832 0002494 261.6938  98.3376  1.70474546 52448","nm":"GSAT0215 (GALILEO 19)"},{"n":43056,"c":2,"l1":"1 43056U 2017-079 26136.04478433  0.00000021  00000-0  00000-0 0  9999","l2":"2 43056  55.0833 222.3915 0002027 282.3954  77.6397  1.70474841 52453","nm":"GSAT0216 (GALILEO 20)"},{"n":43057,"c":2,"l1":"1 43057U 2017-079 26136.85215462  0.00000023  00000-0  00000-0 0  9992","l2":"2 43057  55.0787 222.3667 0004148 289.0020  71.0159  1.70474802 52451","nm":"GSAT0217 (GALILEO 21)"},{"n":43058,"c":2,"l1":"1 43058U 2017-079 26135.31246426  0.00000019  00000-0  00000-0 0  9992","l2":"2 43058  55.0810 222.4069 0005068 272.5633  87.4315  1.70474663 52455","nm":"GSAT0218 (GALILEO 22)"},{"n":43564,"c":2,"l1":"1 43564U 2018-060 26136.97606750 -0.00000069  00000-0  00000-0 0  9994","l2":"2 43564  57.1788 342.6232 0003228 316.4225  43.5865  1.70475697 48638","nm":"GSAT0221 (GALILEO 25)"},{"n":43565,"c":2,"l1":"1 43565U 2018-060 26135.43592649 -0.00000063  00000-0  00000-0 0  9990","l2":"2 43565  57.1831 342.6685 0001983 278.7517  81.2660  1.70475405 48651","nm":"GSAT0222 (GALILEO 26)"},{"n":43566,"c":2,"l1":"1 43566U 2018-060 26135.65686174 -0.00000063  00000-0  00000-0 0  9992","l2":"2 43566  57.1821 342.6639 0002866 333.6172  26.4077  1.70475681 48636","nm":"GSAT0219 (GALILEO 23)"},{"n":43567,"c":2,"l1":"1 43567U 2018-060 26137.05099066 -0.00000069  00000-0  00000-0 0  9993","l2":"2 43567  57.1815 342.6264 0002986 324.1445  35.8697  1.70475366 48648","nm":"GSAT0220 (GALILEO 24)"},{"n":49809,"c":2,"l1":"1 49809U 2021-116 26137.18454133 -0.00000069  00000-0  00000-0 0  9998","l2":"2 49809  57.1686 342.5123 0000667 206.1071 326.6924  1.70475551 27658","nm":"GSAT0223 (GALILEO 27)"},{"n":49810,"c":2,"l1":"1 49810U 2021-116 26137.01379080 -0.00000069  00000-0  00000-0 0  9999","l2":"2 49810  57.1728 342.5157 0000428 128.1594  52.4656  1.70475589 27671","nm":"GSAT0224 (GALILEO 28)"},{"n":59598,"c":2,"l1":"1 59598U 2024-079 26137.59860287  0.00000023  00000-0  00000-0 0  9990","l2":"2 59598  55.1013 101.9339 0002302 286.2726 246.4703  1.70474017 12795","nm":"GSAT0225 (GALILEO 29)"},{"n":59600,"c":2,"l1":"1 59600U 2024-079 26135.74073061  0.00000036  00000-0  00000-0 0  9999","l2":"2 59600  55.0953 101.9845 0001565  25.7086 334.2557  1.70474151 12813","nm":"GSAT0227 (GALILEO 30)"},{"n":61182,"c":2,"l1":"1 61182U 2024-167 26133.63130446  0.00000012  00000-0  00000-0 0  9996","l2":"2 61182  55.1949 222.2621 0005340 217.4341 143.4556  1.70474390 10299","nm":"GSAT0232 (GALILEO 32)"}